OBJECT_NAME,OBJECT_ID,EPOCH,MEAN_MOTION,ECCENTRICITY,INCLINATION,RA_OF_ASC_NODE,ARG_OF_PERICENTER,MEAN_ANOMALY,EPHEMERIS_TYPE,CLASSIFICATION_TYPE,NORAD_CAT_ID,ELEMENT_SET_NO,REV_AT_EPOCH,BSTAR,MEAN_MOTION_DOT,MEAN_MOTION_DDOT
STARLINK-36305,2026-050Y,2026-07-12T20:56:40.146432,15.34408726,.00011363,53.1584,43.5565,93.0152,267.0981,0,U,68189,999,1977,.49058714E-3,.1624E-3,0
STARLINK-37071,2026-050Z,2026-07-13T00:01:13.558368,15.34410283,.00011093,53.1587,42.9275,88.2889,271.8241,0,U,68190,999,1989,.37519363E-3,.12325E-3,0
STARLINK-37091,2026-050AA,2026-07-12T20:20:18.581856,15.34411267,.00014098,53.1594,43.3882,92.2261,267.8903,0,U,68191,999,1987,.62207853E-3,.20707E-3,0
STARLINK-37098,2026-050AB,2026-07-12T23:15:46.877184,15.34413942,.00011465,53.1590,42.7328,83.0966,277.0167,0,U,68192,999,1989,.37134429E-3,.12196E-3,0
STARLINK-37090,2026-050AC,2026-07-12T23:33:57.541536,15.34413688,.00012415,53.1597,42.8125,84.1638,275.9507,0,U,68193,999,1989,.46531016E-3,.15384E-3,0
STARLINK-37093,2026-050AD,2026-07-12T23:21:50.240160,15.34416489,.00011054,53.1588,42.7595,63.3740,296.7375,0,U,68194,999,1989,.43013046E-3,.14192E-3,0
STARLINK-37058,2026-050AE,2026-07-12T19:40:56.085312,15.34410288,.00014177,53.1588,43.2194,39.3343,320.7763,0,U,68195,999,1831,.54860153E-3,.1821E-3,0
YAOGAN-50 02,2026-051A,2026-07-13T13:38:09.854304,13.83256148,.00009574,141.9892,95.0065,265.2350,94.8261,0,U,68196,999,1664,.66659378E-4,.26E-5,0
2026-052A,2026-052A,2026-07-13T10:57:13.722912,15.11226110,.00127981,97.5329,268.8339,210.6203,149.4281,0,U,68198,999,1801,.18082482E-3,.2979E-4,0
YUXING-3 06,2026-052B,2026-07-13T17:17:12.528960,15.11072668,.0011934,97.5327,269.0962,211.3749,148.6770,0,U,68199,999,1805,.13195E-3,.2147E-4,0
2026-052C,2026-052C,2026-07-13T04:31:46.005024,15.10953967,.0001632,97.5310,268.5710,87.3085,272.8332,0,U,68200,999,1796,.10294E-3,.1653E-4,0
2026-052D,2026-052D,2026-07-13T03:41:54.837888,15.11681823,.00106132,97.5322,268.6200,211.8439,148.2151,0,U,68201,999,1797,.26097289E-3,.4382E-4,0
2026-052E,2026-052E,2026-07-13T00:32:18.537792,15.11668932,.00106595,97.5318,268.4911,216.9000,143.1497,0,U,68202,999,1795,.25657414E-3,.4305E-4,0
2026-052F,2026-052F,2026-07-13T00:02:05.015616,15.11952563,.00098445,97.5336,268.5181,209.0559,151.0125,0,U,68203,999,1795,.22422913E-3,.3784E-4,0
2026-052G,2026-052G,2026-07-13T04:47:54.438432,15.11843123,.00095056,97.5328,268.7146,211.4306,148.6358,0,U,68204,999,1798,.15246821E-3,.2544E-4,0
2026-052J,2026-052J,2026-07-13T14:37:56.439264,14.86052007,.04715663,97.3301,260.7838,340.5904,17.7864,0,U,68206,999,1762,.57528432E-3,.45331E-3,.2180058E-5
STARLINK-36986,2026-053A,2026-07-13T15:01:33.873600,15.33467717,.00018262,97.2857,69.3054,81.7118,278.4332,0,U,68207,999,1951,.36208364E-3,.11641E-3,0
STARLINK-37009,2026-053B,2026-07-13T14:57:37.986048,15.33449872,.00018781,97.2862,69.3103,101.4955,258.6499,0,U,68208,999,1951,.31730892E-3,.10184E-3,0
STARLINK-36948,2026-053C,2026-07-13T14:53:43.020384,15.33450457,.00022453,97.2863,69.3147,105.5192,254.6299,0,U,68209,999,1949,.34651221E-3,.11131E-3,0
STARLINK-37119,2026-053D,2026-07-13T14:49:48.402912,15.33448179,.00023319,97.2862,69.3193,124.1871,235.9593,0,U,68210,999,1951,.3905342E-3,.12556E-3,0
STARLINK-37120,2026-053E,2026-07-13T14:45:53.208288,15.33458386,.00011888,97.2863,69.3225,37.6065,322.5261,0,U,68211,999,1949,.5101073E-3,.16436E-3,0
STARLINK-37117,2026-053F,2026-07-13T14:41:56.995872,15.33471267,.00022334,97.2865,69.3249,111.4431,248.7050,0,U,68212,999,1951,.35144173E-3,.11298E-3,0
STARLINK-37116,2026-053G,2026-07-13T14:38:03.380640,15.33450807,.00012385,97.2875,69.3310,90.6202,269.5182,0,U,68213,999,1951,.3402769E-3,.10928E-3,0
STARLINK-35854,2026-053H,2026-07-13T15:28:57.438336,15.33449646,.00024735,97.2868,69.4260,83.0810,277.0714,0,U,68214,999,1950,.35927795E-3,.11544E-3,0
STARLINK-36272,2026-053J,2026-07-13T14:30:13.471776,15.33449596,.00016766,97.2885,69.3364,92.9118,267.2317,0,U,68215,999,1949,.31567392E-3,.10131E-3,0
STARLINK-37014,2026-053K,2026-07-13T14:26:18.580416,15.33459270,.00010131,97.2863,69.3397,40.3503,319.7815,0,U,68216,999,1951,.54918107E-3,.17704E-3,0
STARLINK-37011,2026-053L,2026-07-13T14:22:26.083200,15.33417372,.00016099,97.2871,69.3426,103.8145,256.3277,0,U,68217,999,1951,.20142518E-3,.6428E-4,0
STARLINK-37108,2026-053M,2026-07-13T03:20:44.295648,15.33443968,.00018306,97.2861,68.8979,92.8460,267.2993,0,U,68218,999,1944,.41337685E-3,.13294E-3,0
STARLINK-37106,2026-053N,2026-07-13T15:48:31.794912,15.33446881,.00021358,97.2861,69.4151,73.4907,286.6571,0,U,68219,999,1952,.41542119E-3,.13361E-3,0
STARLINK-37030,2026-053P,2026-07-13T15:40:42.190176,15.33452439,.00017172,97.2847,69.4175,89.1258,271.0181,0,U,68220,999,1952,.30504045E-3,.9788E-4,0
