STARLINK-36305          
1 68189U 26050Y   26193.87268688  .00016240  00000+0  49059-3 0  9991
2 68189  53.1584  43.5565 0001136  93.0152 267.0981 15.34408726 19776
STARLINK-37071          
1 68190U 26050Z   26194.00085137  .00012325  00000+0  37519-3 0  9993
2 68190  53.1587  42.9275 0001109  88.2889 271.8241 15.34410283 19891
STARLINK-37091          
1 68191U 26050AA  26193.84743729  .00020707  00000+0  62208-3 0  9999
2 68191  53.1594  43.3882 0001409  92.2261 267.8903 15.34411267 19872
STARLINK-37098          
1 68192U 26050AB  26193.96929256  .00012196  00000+0  37134-3 0  9997
2 68192  53.1590  42.7328 0001146  83.0966 277.0167 15.34413942 19894
STARLINK-37090          
1 68193U 26050AC  26193.98191599  .00015384  00000+0  46531-3 0  9994
2 68193  53.1597  42.8125 0001241  84.1638 275.9507 15.34413688 19894
STARLINK-37093          
1 68194U 26050AD  26193.97349815  .00014192  00000+0  43013-3 0  9998
2 68194  53.1588  42.7595 0001105  63.3740 296.7375 15.34416489 19893
STARLINK-37058          
1 68195U 26050AE  26193.82009358  .00018210  00000+0  54860-3 0  9995
2 68195  53.1588  43.2194 0001417  39.3343 320.7763 15.34410288 18319
YAOGAN-50 02            
1 68196U 26051A   26194.56816961  .00000260  00000+0  66659-4 0  9991
2 68196 141.9892  95.0065 0000957 265.2350  94.8261 13.83256148 16643
2026-052A               
1 68198U 26052A   26194.45640883  .00002979  00000+0  18082-3 0  9995
2 68198  97.5329 268.8339 0012798 210.6203 149.4281 15.11226110 18018
YUXING-3 06             
1 68199U 26052B   26194.72028390  .00002147  00000+0  13195-3 0  9996
2 68199  97.5327 269.0962 0011934 211.3749 148.6770 15.11072668 18051
2026-052C               
1 68200U 26052C   26194.18872691  .00001653  00000+0  10294-3 0  9998
2 68200  97.5310 268.5710 0001632  87.3085 272.8332 15.10953967 17961
2026-052D               
1 68201U 26052D   26194.15410692  .00004382  00000+0  26097-3 0  9995
2 68201  97.5322 268.6200 0010613 211.8439 148.2151 15.11681823 17972
2026-052E               
1 68202U 26052E   26194.02243678  .00004305  00000+0  25657-3 0  9996
2 68202  97.5318 268.4911 0010659 216.9000 143.1497 15.11668932 17956
2026-052F               
1 68203U 26052F   26194.00144694  .00003784  00000+0  22423-3 0  9991
2 68203  97.5336 268.5181 0009844 209.0559 151.0125 15.11952563 17955
2026-052G               
1 68204U 26052G   26194.19993563  .00002544  00000+0  15247-3 0  9998
2 68204  97.5328 268.7146 0009505 211.4306 148.6358 15.11843123 17985
2026-052J               
1 68206U 26052J   26194.60968101  .00045331  21801-5  57528-3 0  9993
2 68206  97.3301 260.7838 0471566 340.5904  17.7864 14.86052007 17627
STARLINK-36986          
1 68207U 26053A   26194.62608650  .00011641  00000+0  36208-3 0  9998
2 68207  97.2857  69.3054 0001826  81.7118 278.4332 15.33467717 19512
STARLINK-37009          
1 68208U 26053B   26194.62335632  .00010184  00000+0  31731-3 0  9993
2 68208  97.2862  69.3103 0001878 101.4955 258.6499 15.33449872 19516
STARLINK-36948          
1 68209U 26053C   26194.62063681  .00011131  00000+0  34651-3 0  9993
2 68209  97.2863  69.3147 0002245 105.5192 254.6299 15.33450457 19495
STARLINK-37119          
1 68210U 26053D   26194.61792133  .00012556  00000+0  39053-3 0  9998
2 68210  97.2862  69.3193 0002331 124.1871 235.9593 15.33448179 19514
STARLINK-37120          
1 68211U 26053E   26194.61519917  .00016436  00000+0  51011-3 0  9995
2 68211  97.2863  69.3225 0001188  37.6065 322.5261 15.33458386 19497
STARLINK-37117          
1 68212U 26053F   26194.61246523  .00011298  00000+0  35144-3 0  9996
2 68212  97.2865  69.3249 0002233 111.4431 248.7050 15.33471267 19517
STARLINK-37116          
1 68213U 26053G   26194.60976135  .00010928  00000+0  34028-3 0  9994
2 68213  97.2875  69.3310 0001238  90.6202 269.5182 15.33450807 19510
STARLINK-35854          
1 68214U 26053H   26194.64510924  .00011544  00000+0  35928-3 0  9994
2 68214  97.2868  69.4260 0002473  83.0810 277.0714 15.33449646 19504
STARLINK-36272          
1 68215U 26053J   26194.60432259  .00010131  00000+0  31567-3 0  9991
2 68215  97.2885  69.3364 0001676  92.9118 267.2317 15.33449596 19494
STARLINK-37014          
1 68216U 26053K   26194.60160394  .00017704  00000+0  54918-3 0  9998
2 68216  97.2863  69.3397 0001013  40.3503 319.7815 15.33459270 19516
STARLINK-37011          
1 68217U 26053L   26194.59891300  .00006428  00000+0  20143-3 0  9999
2 68217  97.2871  69.3426 0001609 103.8145 256.3277 15.33417372 19512
STARLINK-37108          
1 68218U 26053M   26194.13940157  .00013294  00000+0  41338-3 0  9993
2 68218  97.2861  68.8979 0001830  92.8460 267.2993 15.33443968 19440
STARLINK-37106          
1 68219U 26053N   26194.65870133  .00013361  00000+0  41542-3 0  9999
2 68219  97.2861  69.4151 0002135  73.4907 286.6571 15.33446881 19523
STARLINK-37030          
1 68220U 26053P   26194.65326609  .00009788  00000+0  30504-3 0  9999
2 68220  97.2847  69.4175 0001717  89.1258 271.0181 15.33452439 19524
